{
    "links": {
        "self": "http://www.neowsapp.com/rest/v1/neo/3739221?api_key=iIulBulltgU6a56xZRHN4H3l9WmuAYTsLGpBGhQ2"
    },
    "id": "3739221",
    "neo_reference_id": "3739221",
    "name": "(2016 AR8)",
    "designation": "2016 AR8",
    "nasa_jpl_url": "http://ssd.jpl.nasa.gov/sbdb.cgi?sstr=3739221",
    "absolute_magnitude_h": 25.5,
    "estimated_diameter": {
        "kilometers": {
            "estimated_diameter_min": 0.0211132445,
            "estimated_diameter_max": 0.0472106499
        },
        "meters": {
            "estimated_diameter_min": 21.113244479,
            "estimated_diameter_max": 47.2106498806
        },
        "miles": {
            "estimated_diameter_min": 0.0131191578,
            "estimated_diameter_max": 0.0293353287
        },
        "feet": {
            "estimated_diameter_min": 69.2691770164,
            "estimated_diameter_max": 154.8905885541
        }
    },
    "is_potentially_hazardous_asteroid": false,
    "close_approach_data": [
        {
            "close_approach_date": "2010-01-09",
            "close_approach_date_full": "2010-Jan-09 06:30",
            "epoch_date_close_approach": 1263018600000,
            "relative_velocity": {
                "kilometers_per_second": "17.9815651458",
                "kilometers_per_hour": "64733.6345249531",
                "miles_per_hour": "40222.9630746854"
            },
            "miss_distance": {
                "astronomical": "0.488474366",
                "lunar": "190.016528374",
                "kilometers": "73074724.70320042",
                "miles": "45406528.401868996"
            },
            "orbiting_body": "Earth"
        },
        {
            "close_approach_date": "2012-01-02",
            "close_approach_date_full": "2012-Jan-02 18:39",
            "epoch_date_close_approach": 1325529540000,
            "relative_velocity": {
                "kilometers_per_second": "13.6221302154",
                "kilometers_per_hour": "49039.6687753327",
                "miles_per_hour": "30471.3430787616"
            },
            "miss_distance": {
                "astronomical": "0.3244450072",
                "lunar": "126.2091078008",
                "kilometers": "48536282.009254664",
                "miles": "30159047.1469518032"
            },
            "orbiting_body": "Earth"
        },
        {
            "close_approach_date": "2013-12-26",
            "close_approach_date_full": "2013-Dec-26 16:28",
            "epoch_date_close_approach": 1388075280000,
            "relative_velocity": {
                "kilometers_per_second": "9.7279050107",
                "kilometers_per_hour": "35020.4580385363",
                "miles_per_hour": "21760.350718445"
            },
            "miss_distance": {
                "astronomical": "0.1739543175",
                "lunar": "67.6682295075",
                "kilometers": "26023195.375303725",
                "miles": "16170063.790392405"
            },
            "orbiting_body": "Earth"
        },
        {
            "close_approach_date": "2015-12-21",
            "close_approach_date_full": "2015-Dec-21 00:19",
            "epoch_date_close_approach": 1450657140000,
            "relative_velocity": {
                "kilometers_per_second": "7.0565188735",
                "kilometers_per_hour": "25403.4679446704",
                "miles_per_hour": "15784.7270681759"
            },
            "miss_distance": {
                "astronomical": "0.1034725761",
                "lunar": "40.2508321029",
                "kilometers": "15479276.987972907",
                "miles": "9618376.7102718366"
            },
            "orbiting_body": "Earth"
        },
        {
            "close_approach_date": "2017-12-14",
            "close_approach_date_full": "2017-Dec-14 20:55",
            "epoch_date_close_approach": 1513284900000,
            "relative_velocity": {
                "kilometers_per_second": "6.8202889703",
                "kilometers_per_hour": "24553.0402930304",
                "miles_per_hour": "15256.3043976333"
            },
            "miss_distance": {
                "astronomical": "0.2127054176",
                "lunar": "82.7424074464",
                "kilometers": "31820277.410420512",
                "miles": "19772203.5335745856"
            },
            "orbiting_body": "Earth"
        }
    ],
    "orbital_data": {
        "orbit_id": "3",
        "orbit_determination_date": "2017-04-06 08:29:27",
        "first_observation_date": "2016-01-03",
        "last_observation_date": "2016-01-05",
        "data_arc_in_days": 2,
        "observations_used": 18,
        "orbit_uncertainty": "8",
        "minimum_orbit_intersection": ".101246",
        "jupiter_tisserand_invariant": "4.324",
        "epoch_osculation": "2457392.5",
        "eccentricity": ".3291527022911485",
        "semi_major_axis": "1.574278834429362",
        "inclination": "11.36187119137517",
        "ascending_node_longitude": "282.3840279406797",
        "orbital_period": "721.474376815058",
        "perihelion_distance": "1.056100701917178",
        "perihelion_argument": "145.80677246",
        "aphelion_distance": "2.092456966941546",
        "perihelion_time": "2457356.881590969261",
        "mean_anomaly": "17.77281032165191",
        "mean_motion": ".4989782195581453",
        "equinox": "J2000",
        "orbit_class": {
            "orbit_class_type": "AMO",
            "orbit_class_description": "Near-Earth asteroid orbits similar to that of 1221 Amor",
            "orbit_class_range": "1.017 AU < q (perihelion) < 1.3 AU"
        }
    },
    "is_sentry_object": false
}